{
  "type": "FeatureCollection",
  "features": [
    {
      "type": "Feature",
      "properties": {
        "norad_id": 66618,
        "name": "STARLINK-35970",
        "group": "last-30-days",
        "lat": 31.740076594124737,
        "lon": -128.7015671840205,
        "alt_km": 369.4651733455703,
        "timestamp": "2025-12-09T07:41:31.973490+00:00",
        "meta_object_name": "STARLINK-35970",
        "meta_object_id": "2025-271B",
        "meta_epoch": "2025-12-08T22:00:03.000096",
        "meta_mean_motion": 15.66606704,
        "meta_eccentricity": 9.188e-05,
        "meta_inclination": 53.1589,
        "meta_ra_of_asc_node": 205.6462,
        "meta_arg_of_pericenter": 96.1797,
        "meta_mean_anomaly": 187.61,
        "meta_ephemeris_type": 0,
        "meta_classification_type": "U",
        "meta_norad_cat_id": 66618,
        "meta_element_set_no": 999,
        "meta_rev_at_epoch": 362,
        "meta_bstar": -0.021246297,
        "meta_mean_motion_dot": -0.01996626,
        "meta_mean_motion_ddot": 0,
        "tle_line1": "1 66618U 25271B   25342.91670139 -.01996626  00000+0 -21246-1 0  9992",
        "tle_line2": "2 66618  53.1589 205.6462 0000918  96.1797 187.6100 15.66606704  3627"
      },
      "geometry": {
        "type": "Point",
        "coordinates": [
          -128.7015671840205,
          31.740076594124737
        ]
      }
    },
    {
      "type": "Feature",
      "properties": {
        "norad_id": 66619,
        "name": "STARLINK-35951",
        "group": "last-30-days",
        "lat": -3.661149539080834,
        "lon": -158.98749418377966,
        "alt_km": 375.2249080444817,
        "timestamp": "2025-12-09T07:41:31.973500+00:00",
        "meta_object_name": "STARLINK-35951",
        "meta_object_id": "2025-271C",
        "meta_epoch": "2025-12-08T22:00:03.000096",
        "meta_mean_motion": 15.66604377,
        "meta_eccentricity": 0.00010788,
        "meta_inclination": 53.1592,
        "meta_ra_of_asc_node": 205.7416,
        "meta_arg_of_pericenter": 106.4332,
        "meta_mean_anomaly": 131.7008,
        "meta_ephemeris_type": 0,
        "meta_classification_type": "U",
        "meta_norad_cat_id": 66619,
        "meta_element_set_no": 999,
        "meta_rev_at_epoch": 362,
        "meta_bstar": -0.02120952,
        "meta_mean_motion_dot": -0.01993538,
        "meta_mean_motion_ddot": 0,
        "tle_line1": "1 66619U 25271C   25342.91670139 -.01993538  00000+0 -21210-1 0  9993",
        "tle_line2": "2 66619  53.1592 205.7416 0001078 106.4332 131.7008 15.66604377  3621"
      },
      "geometry": {
        "type": "Point",
        "coordinates": [
          -158.98749418377966,
          -3.661149539080834
        ]
      }
    },
    {
      "type": "Feature",
      "properties": {
        "norad_id": 66620,
        "name": "STARLINK-35936",
        "group": "last-30-days",
        "lat": -8.24587770738154,
        "lon": -162.46259767822127,
        "alt_km": 375.80333533404337,
        "timestamp": "2025-12-09T07:41:31.973516+00:00",
        "meta_object_name": "STARLINK-35936",
        "meta_object_id": "2025-271D",
        "meta_epoch": "2025-12-08T22:00:03.000096",
        "meta_mean_motion": 15.66606745,
        "meta_eccentricity": 0.00010476,
        "meta_inclination": 53.1594,
        "meta_ra_of_asc_node": 205.7544,
        "meta_arg_of_pericenter": 103.8378,
        "meta_mean_anomaly": 128.5454,
        "meta_ephemeris_type": 0,
        "meta_classification_type": "U",
        "meta_norad_cat_id": 66620,
        "meta_element_set_no": 999,
        "meta_rev_at_epoch": 362,
        "meta_bstar": -0.021248268,
        "meta_mean_motion_dot": -0.01996886,
        "meta_mean_motion_ddot": 0,
        "tle_line1": "1 66620U 25271D   25342.91670139 -.01996886  00000+0 -21248-1 0  9995",
        "tle_line2": "2 66620  53.1594 205.7544 0001047 103.8378 128.5454 15.66606745  3624"
      },
      "geometry": {
        "type": "Point",
        "coordinates": [
          -162.46259767822127,
          -8.24587770738154
        ]
      }
    },
    {
      "type": "Feature",
      "properties": {
        "norad_id": 66621,
        "name": "STARLINK-35847",
        "group": "last-30-days",
        "lat": 34.215384935097525,
        "lon": -125.68874590418159,
        "alt_km": 369.0506366466507,
        "timestamp": "2025-12-09T07:41:31.973528+00:00",
        "meta_object_name": "STARLINK-35847",
        "meta_object_id": "2025-271E",
        "meta_epoch": "2025-12-08T22:00:03.000096",
        "meta_mean_motion": 15.66606994,
        "meta_eccentricity": 9.172e-05,
        "meta_inclination": 53.1591,
        "meta_ra_of_asc_node": 205.6384,
        "meta_arg_of_pericenter": 98.5942,
        "meta_mean_anomaly": 188.7319,
        "meta_ephemeris_type": 0,
        "meta_classification_type": "U",
        "meta_norad_cat_id": 66621,
        "meta_element_set_no": 999,
        "meta_rev_at_epoch": 362,
        "meta_bstar": -0.021232572,
        "meta_mean_motion_dot": -0.01995512,
        "meta_mean_motion_ddot": 0,
        "tle_line1": "1 66621U 25271E   25342.91670139 -.01995512  00000+0 -21233-1 0  9995",
        "tle_line2": "2 66621  53.1591 205.6384 0000917  98.5942 188.7319 15.66606994  3629"
      },
      "geometry": {
        "type": "Point",
        "coordinates": [
          -125.68874590418159,
          34.215384935097525
        ]
      }
    },
    {
      "type": "Feature",
      "properties": {
        "norad_id": 66622,
        "name": "STARLINK-35950",
        "group": "last-30-days",
        "lat": -2.127802598640429,
        "lon": -157.8372992367809,
        "alt_km": 375.0149538565456,
        "timestamp": "2025-12-09T07:41:31.973541+00:00",
        "meta_object_name": "STARLINK-35950",
        "meta_object_id": "2025-271F",
        "meta_epoch": "2025-12-08T22:00:03.000096",
        "meta_mean_motion": 15.66605531,
        "meta_eccentricity": 0.00010741,
        "meta_inclination": 53.1593,
        "meta_ra_of_asc_node": 205.7383,
        "meta_arg_of_pericenter": 106.5393,
        "meta_mean_anomaly": 133.5128,
        "meta_ephemeris_type": 0,
        "meta_classification_type": "U",
        "meta_norad_cat_id": 66622,
        "meta_element_set_no": 999,
        "meta_rev_at_epoch": 362,
        "meta_bstar": -0.021241319,
        "meta_mean_motion_dot": -0.01996245,
        "meta_mean_motion_ddot": 0,
        "tle_line1": "1 66622U 25271F   25342.91670139 -.01996245  00000+0 -21241-1 0  9999",
        "tle_line2": "2 66622  53.1593 205.7383 0001074 106.5393 133.5128 15.66605531  3629"
      },
      "geometry": {
        "type": "Point",
        "coordinates": [
          -157.8372992367809,
          -2.127802598640429
        ]
      }
    },
    {
      "type": "Feature",
      "properties": {
        "norad_id": 66623,
        "name": "STARLINK-35920",
        "group": "last-30-days",
        "lat": 0.939049231694259,
        "lon": -155.54512326898634,
        "alt_km": 374.49474337416177,
        "timestamp": "2025-12-09T07:41:31.973551+00:00",
        "meta_object_name": "STARLINK-35920",
        "meta_object_id": "2025-271G",
        "meta_epoch": "2025-12-08T22:00:03.000096",
        "meta_mean_motion": 15.66605824,
        "meta_eccentricity": 0.00010609,
        "meta_inclination": 53.159,
        "meta_ra_of_asc_node": 205.7301,
        "meta_arg_of_pericenter": 99.0726,
        "meta_mean_anomaly": 144.8117,
        "meta_ephemeris_type": 0,
        "meta_classification_type": "U",
        "meta_norad_cat_id": 66623,
        "meta_element_set_no": 999,
        "meta_rev_at_epoch": 362,
        "meta_bstar": -0.021229872,
        "meta_mean_motion_dot": -0.01995311,
        "meta_mean_motion_ddot": 0,
        "tle_line1": "1 66623U 25271G   25342.91670139 -.01995311  00000+0 -21230-1 0  9991",
        "tle_line2": "2 66623  53.1590 205.7301 0001060  99.0726 144.8117 15.66605824  3626"
      },
      "geometry": {
        "type": "Point",
        "coordinates": [
          -155.54512326898634,
          0.939049231694259
        ]
      }
    },
    {
      "type": "Feature",
      "properties": {
        "norad_id": 66624,
        "name": "STARLINK-35927",
        "group": "last-30-days",
        "lat": -0.5940032495730163,
        "lon": -156.69034211900708,
        "alt_km": 374.74160214716085,
        "timestamp": "2025-12-09T07:41:31.973561+00:00",
        "meta_object_name": "STARLINK-35927",
        "meta_object_id": "2025-271H",
        "meta_epoch": "2025-12-08T22:00:03.000096",
        "meta_mean_motion": 15.66607738,
        "meta_eccentricity": 0.00010057,
        "meta_inclination": 53.159,
        "meta_ra_of_asc_node": 205.7344,
        "meta_arg_of_pericenter": 102.4246,
        "meta_mean_anomaly": 139.5413,
        "meta_ephemeris_type": 0,
        "meta_classification_type": "U",
        "meta_norad_cat_id": 66624,
        "meta_element_set_no": 999,
        "meta_rev_at_epoch": 362,
        "meta_bstar": -0.021245757,
        "meta_mean_motion_dot": -0.01996719,
        "meta_mean_motion_ddot": 0,
        "tle_line1": "1 66624U 25271H   25342.91670139 -.01996719  00000+0 -21246-1 0  9992",
        "tle_line2": "2 66624  53.1590 205.7344 0001005 102.4246 139.5413 15.66607738  3625"
      },
      "geometry": {
        "type": "Point",
        "coordinates": [
          -156.69034211900708,
          -0.5940032495730163
        ]
      }
    }
  ]
}